NORAD_CAT_ID,OBJECT_NAME,OBJECT_TYPE,EPOCH,MEAN_MOTION,ECCENTRICITY,INCLINATION,RA_OF_ASC_NODE,ARG_OF_PERICENTER,MEAN_ANOMALY,BSTAR,MEAN_MOTION_DOT,MEAN_MOTION_DDOT,TLE_LINE0,TLE_LINE1,TLE_LINE2,SEMIMAJOR_AXIS,PERIOD,APOGEE,PERIGEE,DECAYED
52640.0,STARLINK-3977,PAYLOAD,2022-08-12 14:00:01,15.27740292,0.0001973,53.2175,358.5725,33.5775,211.3192,-0.042179,-0.01062203,0.0,0 STARLINK-3977,1 52640U 22052AU  22224.58334491 -.01062203  00000-0 -42179-1 0  9997,2 52640  53.2175 358.5725 0001973  33.5775 211.3192 15.27740292  1309,6860.706,94.257,483.925,481.218,0.0
52640.0,STARLINK-3977,PAYLOAD,2022-08-12 20:00:01,15.27167205,0.0001594,53.2172,357.4164,53.0087,127.4225,-0.042683,-0.01056598,0.0,0 STARLINK-3977,1 52640U 22052AU  22224.83335648 -.01056598  00000-0 -42683-1 0  9990,2 52640  53.2172 357.4164 0001594  53.0087 127.4225 15.27167205 14500,6862.422,94.292,485.381,483.194,0.0
52640.0,STARLINK-3977,PAYLOAD,2022-08-12 22:00:01,15.26984737,0.0001425,53.2171,357.0305,56.0511,222.7534,-0.043449,-0.01068477,0.0,0 STARLINK-3977,1 52640U 22052AU  22224.91668981 -.01068477  00000-0 -43449-1 0  9998,2 52640  53.2171 357.0305 0001425  56.0511 222.7534 15.26984737  1302,6862.969,94.303,485.812,483.856,0.0
52640.0,STARLINK-3977,PAYLOAD,2022-08-13 14:00:01,15.25463413,0.0001584,53.2174,353.9514,42.188,301.507,-0.045312,-0.0106432,0.0,0 STARLINK-3977,1 52640U 22052AU  22225.58334491 -.01064320  00000-0 -45312-1 0  9992,2 52640  53.2174 353.9514 0001584  42.1880 301.5070 15.25463413  1306,6867.531,94.398,490.484,488.3080000000001,0.0
52640.0,STARLINK-3977,PAYLOAD,2022-08-13 22:00:00,15.24705566,0.0001619,53.2171,352.4147,38.5972,336.2049,-0.046486,-0.01066958,0.0,0 STARLINK-3977,1 52640U 22052AU  22225.91667824 -.01066958  00000-0 -46486-1 0  9990,2 52640  53.2171 352.4147 0001619  38.5972 336.2049 15.24705566  1307,6869.807,94.444,492.784,490.559,0.0
52640.0,STARLINK-3977,PAYLOAD,2022-08-14 04:00:00,15.24132358,0.0001504,53.2174,351.2619,45.9329,261.6033,-0.047023,-0.01061312,0.0,0 STARLINK-3977,1 52640U 22052AU  22226.16667824 -.01061312  00000-0 -47023-1 0  9995,2 52640  53.2174 351.2619 0001504  45.9329 261.6033 15.24132358 14707,6871.529,94.48,494.42800000000005,492.361,0.0
52640.0,STARLINK-3977,PAYLOAD,2022-08-14 14:00:01,15.23185265,0.0001753,53.2174,349.3464,39.3262,34.9538,-0.048559,-0.01065049,0.0,0 STARLINK-3977,1 52640U 22052AU  22226.58334491 -.01065049  00000-0 -48559-1 0  9998,2 52640  53.2174 349.3464 0001753  39.3262  34.9538 15.23185265  1309,6874.377,94.539,497.447,495.037,0.0
52640.0,STARLINK-3977,PAYLOAD,2022-08-14 20:00:01,15.2261447,0.000124,53.2172,348.1981,62.5061,303.1366,-0.049242,-0.01061973,0.0,0 STARLINK-3977,1 52640U 22052AU  22226.83334491 -.01061973  00000-0 -49242-1 0  9998,2 52640  53.2172 348.1981 0001240  62.5061 303.1366 15.22614470 14818,6876.095,94.574,498.81300000000016,497.107,0.0
52640.0,STARLINK-3977,PAYLOAD,2022-08-14 22:00:00,15.22425075,0.0001388,53.2171,347.8148,61.0011,41.6489,-0.049587,-0.01063315,0.0,0 STARLINK-3977,1 52640U 22052AU  22226.91667824 -.01063315  00000-0 -49587-1 0  9990,2 52640  53.2171 347.8148 0001388  61.0011  41.6489 15.22425075  1301,6876.665,94.586,499.485,497.576,0.0
52640.0,STARLINK-3977,PAYLOAD,2022-08-15 12:00:00,15.21095989,0.0001751999999999,53.2175,345.1389,38.1252,21.9758,-0.05161,-0.01063995,0.0,0 STARLINK-3977,1 52640U 22052AU  22227.50001157 -.01063995  00000-0 -51610-1 0  9991,2 52640  53.2175 345.1389 0001752  38.1252  21.9758 15.21095989 14917,6880.67,94.669,503.741,501.33,0.0
52640.0,STARLINK-3977,PAYLOAD,2022-08-15 14:00:01,15.20905175,0.0001896999999999,53.2174,344.7574,41.3131,115.3386,-0.051819,-0.01062479,0.0,0 STARLINK-3977,1 52640U 22052AU  22227.58334491 -.01062479  00000-0 -51819-1 0  9996,2 52640  53.2174 344.7574 0001897  41.3131 115.3386 15.20905175  1309,6881.246,94.68,504.416,501.806,0.0
52640.0,STARLINK-3977,PAYLOAD,2022-08-15 22:00:00,15.20146469,0.0001534,53.2172,343.231,59.4912,122.792,-0.053033,-0.01063234,0.0,0 STARLINK-3977,1 52640U 22052AU  22227.91667824 -.01063234  00000-0 -53033-1 0  9992,2 52640  53.2172 343.2310 0001534  59.4912 122.7920 15.20146469  1303,6883.535,94.728,506.456,504.344,0.0
52640.0,STARLINK-3977,PAYLOAD,2022-08-16 12:00:00,15.18815866,0.0001939,53.2173,340.5646,38.159,96.7842,-0.0550289999999999,-0.01061418,0.0,0 STARLINK-3977,1 52640U 22052AU  22228.50001157 -.01061418  00000-0 -55029-1 0  9998,2 52640  53.2173 340.5646 0001939  38.1590  96.7842 15.18815866 15063,6887.555,94.811,510.756,508.085,0.0
52640.0,STARLINK-3977,PAYLOAD,2022-08-16 14:00:01,15.18625826,0.0001894,53.2174,340.1844,41.6387,189.1702,-0.055298,-0.01060772,0.0,0 STARLINK-3977,1 52640U 22052AU  22228.58334491 -.01060772  00000-0 -55298-1 0  9996,2 52640  53.2174 340.1844 0001894  41.6387 189.1702 15.18625826  1302,6888.13,94.823,511.299,508.69,0.0
52640.0,STARLINK-3977,PAYLOAD,2022-08-16 22:00:00,15.17868835,0.0001465999999999,53.2172,338.6632,61.3242,192.3779,-0.056769,-0.01078396,0.0,0 STARLINK-3977,1 52640U 22052AU  22228.91667824 -.01078396  00000-0 -56769-1 0  9997,2 52640  53.2172 338.6632 0001466  61.3242 192.3779 15.17868835  1309,6890.42,94.87,513.295,511.275,0.0
52640.0,STARLINK-3977,PAYLOAD,2022-08-17 04:00:00,15.17297404,0.0001599,53.2173,337.5226,53.8576,126.4172,-0.057547,-0.01075525,0.0,0 STARLINK-3977,1 52640U 22052AU  22229.16667824 -.01075525  00000-0 -57547-1 0  9991,2 52640  53.2173 337.5226 0001599  53.8576 126.4172 15.17297404 15162,6892.15,94.906,515.117,512.913,0.0
52640.0,STARLINK-3977,PAYLOAD,2022-08-17 16:00:00,15.16168617,0.0001516,53.2167,335.2503,53.5477,338.3223,-0.060312,-0.01090048,0.0,0 STARLINK-3977,1 52640U 22052AU  22229.66667824 -.01090048  00000-0 -60312-1 0  9997,2 52640  53.2167 335.2503 0001516  53.5477 338.3223 15.16168617  1308,6895.57,94.976,518.48,516.39,0.0
52640.0,STARLINK-3977,PAYLOAD,2022-08-18 14:00:01,15.14074925,0.0001486999999999,53.2164,331.0879,55.128,299.3486,-0.063511,-0.01082016,0.0,0 STARLINK-3977,1 52640U 22052AU  22230.58334491 -.01082016  00000-0 -63511-1 0  9991,2 52640  53.2164 331.0879 0001487  55.1280 299.3486 15.14074925  1305,6901.925,95.108,524.817,522.764,0.0
52640.0,STARLINK-3977,PAYLOAD,2022-08-18 20:00:01,15.13501964,0.0001455,53.2171,329.9532,58.2975,219.3315,-0.064311,-0.01078318,0.0,0 STARLINK-3977,1 52640U 22052AU  22230.83334491 -.01078318  00000-0 -64311-1 0  9998,2 52640  53.2171 329.9532 0001455  58.2975 219.3315 15.13501964 15412,6903.667,95.144,526.5369999999998,524.528,0.0
52640.0,STARLINK-3977,PAYLOAD,2022-08-18 22:00:00,15.13311435,0.0001395999999999,53.2173,329.5752,53.6598,318.2389,-0.064625,-0.01077802,0.0,0 STARLINK-3977,1 52640U 22052AU  22230.91667824 -.01077802  00000-0 -64625-1 0  9991,2 52640  53.2173 329.5752 0001396  53.6598 318.2389 15.13311435  1303,6904.246999999999,95.156,527.075,525.148,0.0
52640.0,STARLINK-3977,PAYLOAD,2022-08-19 14:00:01,15.11792777,0.0001588999999999,53.2175,326.561,47.7359,356.2593,-0.067441,-0.01077822,0.0,0 STARLINK-3977,1 52640U 22052AU  22231.58334491 -.01077822  00000-0 -67441-1 0  9997,2 52640  53.2175 326.5610 0001589  47.7359 356.2593 15.11792777  1307,6908.87,95.251,531.832,529.637,0.0
52640.0,STARLINK-3977,PAYLOAD,2022-08-19 20:00:01,15.11223534,0.000134,53.2171,325.4318,60.6792,264.4116,-0.068569,-0.01078468,0.0,0 STARLINK-3977,1 52640U 22052AU  22231.83334491 -.01078468  00000-0 -68569-1 0  9994,2 52640  53.2171 325.4318 0001340  60.6792 264.4116 15.11223534 15571,6910.604,95.287,533.395,531.543,0.0
52640.0,STARLINK-3977,PAYLOAD,2022-08-19 22:00:00,15.11032029,0.0001408,53.2174,325.0552,56.9535,1.7227,-0.06877,-0.01076071,0.0,0 STARLINK-3977,1 52640U 22052AU  22231.91667824 -.01076071  00000-0 -68770-1 0  9994,2 52640  53.2174 325.0552 0001408  56.9535   1.7227 15.11032029  1306,6911.188,95.299,534.026,532.08,0.0
52640.0,STARLINK-3977,PAYLOAD,2022-08-20 12:00:00,15.09591677,0.0001364,53.2173,322.4275,51.9922,300.1966,-0.0501519999999999,-0.00755663,0.0,0 STARLINK-3977,1 52640U 22052AU  22232.50001157 -.00755663  00000-0 -50152-1 0  9996,2 52640  53.2173 322.4275 0001364  51.9922 300.1966 15.09591677 15671,6915.584,95.39,538.3919999999998,536.505,0.0
52640.0,STARLINK-3977,PAYLOAD,2022-08-20 14:00:01,15.09389886,0.0001435,53.2175,322.0529,49.4222,35.8911,-0.041024,-0.00623021,0.0,0 STARLINK-3977,1 52640U 22052AU  22232.58334491 -.00623021  00000-0 -41024-1 0  9994,2 52640  53.2175 322.0529 0001435  49.4222  35.8911 15.09389886  1309,6916.2,95.403,539.058,537.073,0.0
52640.0,STARLINK-3977,PAYLOAD,2022-08-20 20:00:01,15.08938448,0.0001325,53.2172,320.9288,58.3122,306.1228,-0.010227,-0.00159888,0.0,0 STARLINK-3977,1 52640U 22052AU  22232.83335648 -.00159888  00000-0 -10227-1 0  9993,2 52640  53.2172 320.9288 0001325  58.3122 306.1228 15.08938448 15720,6917.579000000002,95.431,540.361,538.528,0.0
52640.0,STARLINK-3977,PAYLOAD,2022-08-20 22:00:00,15.08843693,0.0001361999999999,53.2174,320.5541,57.222,40.0956,-0.00080827,-0.0001313,0.0,0 STARLINK-3977,1 52640U 22052AU  22232.91667824 -.00013130  00000-0 -80827-3 0  9990,2 52640  53.2174 320.5541 0001362  57.2220  40.0956 15.08843693  1306,6917.869000000002,95.437,540.6759999999998,538.7919999999998,0.0
52640.0,STARLINK-3977,PAYLOAD,2022-08-21 04:00:00,15.08807253,0.0001585999999999,53.2161,319.4323,57.2085,318.8197,0.0029201,0.0004644999999999,0.0,0 STARLINK-3977,1 52640U 22052AU  22233.16667824  .00046450  00000-0  29201-2 0  9995,2 52640  53.2161 319.4323 0001586  57.2085 318.8197 15.08807253 15775,6917.98,95.44,540.943,538.748,0.0
52640.0,STARLINK-3977,PAYLOAD,2022-08-21 12:00:00,15.08853303,0.0001831,53.2113,317.9445,57.9733,329.6818,-0.0010433,-0.0001686,0.0,0 STARLINK-3977,1 52640U 22052AU  22233.50001157 -.00016860  00000-0 -10433-2 0  9995,2 52640  53.2113 317.9445 0001831  57.9733 329.6818 15.08853303 15823,6917.84,95.437,540.971,538.438,0.0
